MALLIGYONG-1            
1 58400U 23179A   24013.82004145  .00008699  00000+0  38364-3 0  9991
2 58400  97.4247 262.8978 0017645  90.7736 269.5522 15.21881734  8097
